{
  "type": "FeatureCollection",
  "features": [
    {
      "type": "Feature",
      "properties": {
        "norad_id": 24876,
        "name": "GPS BIIR-2  (PRN 13)",
        "group": "gps-ops",
        "lat": 47.79334513297875,
        "lon": 154.08232030743105,
        "alt_km": 19921.378126333082,
        "timestamp": "2025-12-14T07:33:19.735813+00:00",
        "meta_object_name": "GPS BIIR-2  (PRN 13)",
        "meta_object_id": "1997-035A",
        "meta_epoch": "2025-12-12T17:35:03.459552",
        "meta_mean_motion": 2.00563636,
        "meta_eccentricity": 0.00967745,
        "meta_inclination": 55.8952,
        "meta_ra_of_asc_node": 105.8691,
        "meta_arg_of_pericenter": 56.9985,
        "meta_mean_anomaly": 303.9066,
        "meta_ephemeris_type": 0,
        "meta_classification_type": "U",
        "meta_norad_cat_id": 24876,
        "meta_element_set_no": 999,
        "meta_rev_at_epoch": 20821,
        "meta_bstar": 0,
        "meta_mean_motion_dot": 1e-07,
        "meta_mean_motion_ddot": 0,
        "tle_line1": "1 24876U 97035A   25346.73267893  .00000010  00000+0  00000+0 0  9995",
        "tle_line2": "2 24876  55.8952 105.8691 0096774  56.9985 303.9066  2.00563636208219"
      },
      "geometry": {
        "type": "Point",
        "coordinates": [
          154.08232030743105,
          47.79334513297875
        ]
      }
    },
    {
      "type": "Feature",
      "properties": {
        "norad_id": 26360,
        "name": "GPS BIIR-4  (PRN 20)",
        "group": "gps-ops",
        "lat": 20.42342218564193,
        "lon": -168.29763614299645,
        "alt_km": 20174.077163556998,
        "timestamp": "2025-12-14T07:33:19.735847+00:00",
        "meta_object_name": "GPS BIIR-4  (PRN 20)",
        "meta_object_id": "2000-025A",
        "meta_epoch": "2025-12-13T02:44:33.459360",
        "meta_mean_motion": 2.00567712,
        "meta_eccentricity": 0.00388747,
        "meta_inclination": 55.0454,
        "meta_ra_of_asc_node": 26.8226,
        "meta_arg_of_pericenter": 242.031,
        "meta_mean_anomaly": 126.3548,
        "meta_ephemeris_type": 0,
        "meta_classification_type": "U",
        "meta_norad_cat_id": 26360,
        "meta_element_set_no": 999,
        "meta_rev_at_epoch": 18754,
        "meta_bstar": 0,
        "meta_mean_motion_dot": -9.9e-07,
        "meta_mean_motion_ddot": 0,
        "tle_line1": "1 26360U 00025A   25347.11427615 -.00000099  00000+0  00000+0 0  9999",
        "tle_line2": "2 26360  55.0454  26.8226 0038874 242.0310 126.3548  2.00567712187544"
      },
      "geometry": {
        "type": "Point",
        "coordinates": [
          -168.29763614299645,
          20.42342218564193
        ]
      }
    },
    {
      "type": "Feature",
      "properties": {
        "norad_id": 26407,
        "name": "GPS BIIR-5  (PRN 22)",
        "group": "gps-ops",
        "lat": -3.3167112087443886,
        "lon": -139.82120179558802,
        "alt_km": 19983.766885380617,
        "timestamp": "2025-12-14T07:33:19.735865+00:00",
        "meta_object_name": "GPS BIIR-5  (PRN 22)",
        "meta_object_id": "2000-040A",
        "meta_epoch": "2025-12-13T01:34:44.094432",
        "meta_mean_motion": 2.00567991,
        "meta_eccentricity": 0.01259938,
        "meta_inclination": 54.8907,
        "meta_ra_of_asc_node": 222.556,
        "meta_arg_of_pericenter": 301.8176,
        "meta_mean_anomaly": 231.1647,
        "meta_ephemeris_type": 0,
        "meta_classification_type": "U",
        "meta_norad_cat_id": 26407,
        "meta_element_set_no": 999,
        "meta_rev_at_epoch": 18621,
        "meta_bstar": 0,
        "meta_mean_motion_dot": 1.8e-07,
        "meta_mean_motion_ddot": 0,
        "tle_line1": "1 26407U 00040A   25347.06578813  .00000018  00000+0  00000+0 0  9999",
        "tle_line2": "2 26407  54.8907 222.5560 0125993 301.8176 231.1647  2.00567991186212"
      },
      "geometry": {
        "type": "Point",
        "coordinates": [
          -139.82120179558802,
          -3.3167112087443886
        ]
      }
    },
    {
      "type": "Feature",
      "properties": {
        "norad_id": 27663,
        "name": "GPS BIIR-8  (PRN 16)",
        "group": "gps-ops",
        "lat": 37.188178520800165,
        "lon": 10.1351187286319,
        "alt_km": 20107.20506904164,
        "timestamp": "2025-12-14T07:33:19.735880+00:00",
        "meta_object_name": "GPS BIIR-8  (PRN 16)",
        "meta_object_id": "2003-005A",
        "meta_epoch": "2025-12-13T09:15:26.891424",
        "meta_mean_motion": 2.00570905,
        "meta_eccentricity": 0.01474873,
        "meta_inclination": 54.9232,
        "meta_ra_of_asc_node": 222.3526,
        "meta_arg_of_pericenter": 51.8083,
        "meta_mean_anomaly": 128.0829,
        "meta_ephemeris_type": 0,
        "meta_classification_type": "U",
        "meta_norad_cat_id": 27663,
        "meta_element_set_no": 999,
        "meta_rev_at_epoch": 16758,
        "meta_bstar": 0,
        "meta_mean_motion_dot": 2.3e-07,
        "meta_mean_motion_ddot": 0,
        "tle_line1": "1 27663U 03005A   25347.38572791  .00000023  00000+0  00000+0 0  9998",
        "tle_line2": "2 27663  54.9232 222.3526 0147487  51.8083 128.0829  2.00570905167584"
      },
      "geometry": {
        "type": "Point",
        "coordinates": [
          10.1351187286319,
          37.188178520800165
        ]
      }
    },
    {
      "type": "Feature",
      "properties": {
        "norad_id": 28190,
        "name": "GPS BIIR-11 (PRN 19)",
        "group": "gps-ops",
        "lat": -50.11075814650923,
        "lon": -133.76893253571916,
        "alt_km": 20342.109550270827,
        "timestamp": "2025-12-14T07:33:19.735893+00:00",
        "meta_object_name": "GPS BIIR-11 (PRN 19)",
        "meta_object_id": "2004-009A",
        "meta_epoch": "2025-12-11T22:20:18.324960",
        "meta_mean_motion": 2.00560799,
        "meta_eccentricity": 0.0108335,
        "meta_inclination": 54.9863,
        "meta_ra_of_asc_node": 283.2515,
        "meta_arg_of_pericenter": 167.6362,
        "meta_mean_anomaly": 200.4215,
        "meta_ephemeris_type": 0,
        "meta_classification_type": "U",
        "meta_norad_cat_id": 28190,
        "meta_element_set_no": 999,
        "meta_rev_at_epoch": 15919,
        "meta_bstar": 0,
        "meta_mean_motion_dot": -7.6e-07,
        "meta_mean_motion_ddot": 0,
        "tle_line1": "1 28190U 04009A   25345.93076765 -.00000076  00000+0  00000+0 0  9997",
        "tle_line2": "2 28190  54.9863 283.2515 0108335 167.6362 200.4215  2.00560799159191"
      },
      "geometry": {
        "type": "Point",
        "coordinates": [
          -133.76893253571916,
          -50.11075814650923
        ]
      }
    },
    {
      "type": "Feature",
      "properties": {
        "norad_id": 28474,
        "name": "GPS BIIR-13 (PRN 02)",
        "group": "gps-ops",
        "lat": -7.488561093824021,
        "lon": -32.90295709429215,
        "alt_km": 19840.713539944474,
        "timestamp": "2025-12-14T07:33:19.735907+00:00",
        "meta_object_name": "GPS BIIR-13 (PRN 02)",
        "meta_object_id": "2004-045A",
        "meta_epoch": "2025-12-12T12:01:27.782400",
        "meta_mean_motion": 2.00569519,
        "meta_eccentricity": 0.0170757,
        "meta_inclination": 55.2408,
        "meta_ra_of_asc_node": 332.4152,
        "meta_arg_of_pericenter": 309.2412,
        "meta_mean_anomaly": 170.6572,
        "meta_ephemeris_type": 0,
        "meta_classification_type": "U",
        "meta_norad_cat_id": 28474,
        "meta_element_set_no": 999,
        "meta_rev_at_epoch": 15468,
        "meta_bstar": 0,
        "meta_mean_motion_dot": -8.8e-07,
        "meta_mean_motion_ddot": 0,
        "tle_line1": "1 28474U 04045A   25346.50101600 -.00000088  00000+0  00000+0 0  9996",
        "tle_line2": "2 28474  55.2408 332.4152 0170757 309.2412 170.6572  2.00569519154688"
      },
      "geometry": {
        "type": "Point",
        "coordinates": [
          -32.90295709429215,
          -7.488561093824021
        ]
      }
    },
    {
      "type": "Feature",
      "properties": {
        "norad_id": 28874,
        "name": "GPS BIIRM-1 (PRN 17)",
        "group": "gps-ops",
        "lat": -39.61555711465723,
        "lon": -114.72957890463834,
        "alt_km": 19847.822811663016,
        "timestamp": "2025-12-14T07:33:19.735919+00:00",
        "meta_object_name": "GPS BIIRM-1 (PRN 17)",
        "meta_object_id": "2005-038A",
        "meta_epoch": "2025-12-10T14:00:21.521088",
        "meta_mean_motion": 2.00578486,
        "meta_eccentricity": 0.0131701,
        "meta_inclination": 55.0338,
        "meta_ra_of_asc_node": 280.7877,
        "meta_arg_of_pericenter": 293.4518,
        "meta_mean_anomaly": 200.7371,
        "meta_ephemeris_type": 0,
        "meta_classification_type": "U",
        "meta_norad_cat_id": 28874,
        "meta_element_set_no": 999,
        "meta_rev_at_epoch": 14805,
        "meta_bstar": 0,
        "meta_mean_motion_dot": -6.4e-07,
        "meta_mean_motion_ddot": 0,
        "tle_line1": "1 28874U 05038A   25344.58358242 -.00000064  00000+0  00000+0 0  9999",
        "tle_line2": "2 28874  55.0338 280.7877 0131701 293.4518 200.7371  2.00578486148057"
      },
      "geometry": {
        "type": "Point",
        "coordinates": [
          -114.72957890463834,
          -39.61555711465723
        ]
      }
    }
  ]
}